{"fetched_at":"2026-03-29T16:36:15Z","count":15609,"tles":[{"name":"STARLINK-36367","line1":"1 67629U 26020N   26087.24380633  .00038467  00000+0  13651-2 0  9997","line2":"2 67629  43.0032  34.7795 0001278 249.7366 110.3348 15.28410659  8957","category":"Starlink"}]}